OBJECT_NAME,OBJECT_ID,EPOCH,MEAN_MOTION,ECCENTRICITY,INCLINATION,RA_OF_ASC_NODE,ARG_OF_PERICENTER,MEAN_ANOMALY,EPHEMERIS_TYPE,CLASSIFICATION_TYPE,NORAD_CAT_ID,ELEMENT_SET_NO,REV_AT_EPOCH,BSTAR,MEAN_MOTION_DOT,MEAN_MOTION_DDOT
IONOSFERA-M 2,2024-199B,2026-07-04T21:06:57.595392,14.22761151,.00003522,98.7149,58.7739,62.1825,297.9388,0,U,61736,999,13334,.59452297E-4,.89E-6,0
PRSC-EO1,2025-012A,2026-07-04T22:15:44.094816,15.17686424,.0005992,97.4217,258.0406,180.6843,179.4384,0,U,62725,999,8088,.60704951E-3,.12182E-3,0
BIOMASS,2025-090A,2026-07-03T22:41:24.364896,14.67363795,.00014283,98.0747,12.0140,85.8920,274.2447,0,U,63772,999,6314,.22742015E-3,.1237E-4,0
GOSAT-GW (IBUKI GW),2025-141A,2026-07-04T22:00:57.039840,14.67551236,.00014823,98.0566,122.9460,87.9469,272.1905,0,U,64694,999,5444,.16565143E-3,.892E-5,0
IONOSFERA-M 3,2025-155A,2026-07-04T21:55:15.811680,14.21489586,.0001928,98.6034,147.3729,127.9619,232.1733,0,U,64876,999,4892,.53440206E-4,.74E-6,0
IONOSFERA-M 4,2025-155B,2026-07-04T22:45:23.522688,14.21492040,.00016239,98.6039,147.3240,109.5756,250.5597,0,U,64877,999,4892,.59248448E-4,.87E-6,0
MICROCARB,2025-156A,2026-07-04T16:20:23.439840,14.72877816,.00167936,98.0074,262.5304,204.6785,155.3621,0,U,64899,999,5054,.1397844E-3,.847E-5,0
CO3D 3,2025-156B,2026-07-04T16:42:57.228480,15.20218208,.00018459,97.4326,264.1379,107.8204,252.3233,0,U,64900,999,5219,.37879406E-3,.8145E-4,0
CO3D 4,2025-156C,2026-07-04T16:43:09.810912,15.20210069,.00009224,97.4336,264.1381,176.2100,183.9142,0,U,64901,999,5219,.93209132E-4,.1951E-4,0
CO3D 2,2025-156D,2026-07-04T15:55:09.448320,15.20208589,.00014246,97.4331,264.0038,92.2377,267.9021,0,U,64902,999,5218,.32256345E-3,.6923E-4,0
CO3D 1,2025-156E,2026-07-04T15:55:22.689120,15.20212086,.00014502,97.4328,264.0039,103.2236,256.9161,0,U,64903,999,5218,.29116748E-3,.6243E-4,0
PRSC-S1,2025-164A,2026-07-04T21:33:27.498816,15.06581919,.00051447,41.1289,188.0529,122.9915,237.1394,0,U,65055,999,5110,.29679765E-3,.4297E-4,0
SENTINEL-6B,2025-264A,2026-07-04T17:32:37.816800,12.80930074,.00079163,66.0414,98.7411,268.9242,91.0867,0,U,66514,999,2941,.11456746E-3,-.35E-6,0
CAS500-3,2025-274F,2026-07-04T18:17:47.056416,14.88367985,.00068086,97.7441,113.4137,65.3630,294.8296,0,U,66655,999,3276,.21237234E-3,.1914E-4,0
CSG-3,2026-001A,2026-07-04T22:54:10.494432,14.82147898,.00014594,97.8893,9.2990,91.5862,268.5518,0,U,67304,999,2709,.85287073E-4,.627E-5,0
PRSC-E03,2026-092A,2026-07-04T21:11:52.799136,15.06772019,.00036933,38.0022,345.3246,183.2801,176.7937,0,U,68835,999,1062,.31208611E-3,.4628E-4,0
CAS500-2,2026-100AK,2026-07-04T10:59:35.244384,15.20803068,.00087162,97.3880,82.9905,335.8740,24.2086,0,U,69013,999,943,.41725102E-3,.9144E-4,0
